NORAD_CAT_ID,OBJECT_NAME,OBJECT_TYPE,EPOCH,MEAN_MOTION,ECCENTRICITY,INCLINATION,RA_OF_ASC_NODE,ARG_OF_PERICENTER,MEAN_ANOMALY,BSTAR,MEAN_MOTION_DOT,MEAN_MOTION_DDOT,TLE_LINE0,TLE_LINE1,TLE_LINE2,SEMIMAJOR_AXIS,PERIOD,APOGEE,PERIGEE,DECAYED
52103.0,STARLINK-3705,PAYLOAD,2024-07-01 19:16:58,15.08847604,0.0001086,53.2168,323.9454,73.9992,286.112,0.00015383,2.162e-05,0.0,0 STARLINK-3705,1 52103U 22029R   24183.80345050  .00002162  00000-0  15383-3 0  9993,2 52103  53.2168 323.9454 0001086  73.9992 286.1120 15.08847604127803,6917.857,95.437,540.473,538.971,0.0
52103.0,STARLINK-3705,PAYLOAD,2024-07-02 12:46:13,15.0883624,0.0001051,53.2172,320.6736,83.6226,276.4886,1.5386e-05,-4.3e-07,0.0,0 STARLINK-3705,1 52103U 22029R   24184.53210417 -.00000043  00000-0  15386-4 0  9993,2 52103  53.2172 320.6736 0001051  83.6226 276.4886 15.08836240127912,6917.892,95.438,540.484,539.03,0.0
52103.0,STARLINK-3705,PAYLOAD,2024-07-02 14:21:36,15.08836939,0.0001084,53.2174,320.3763,85.0241,275.0875,1.8167e-05,1e-08,0.0,0 STARLINK-3705,1 52103U 22029R   24184.59834376  .00000001  00000-0  18167-4 0  9998,2 52103  53.2174 320.3763 0001084  85.0241 275.0875 15.08836939127929,6917.89,95.438,540.505,539.005,0.0
52103.0,STARLINK-3705,PAYLOAD,2024-07-02 19:07:45,15.08841669,0.0001094,53.2175,319.4832,82.1792,277.9325,4.4383e-05,4.19e-06,0.0,0 STARLINK-3705,1 52103U 22029R   24184.79705966  .00000419  00000-0  44383-4 0  9994,2 52103  53.2175 319.4832 0001094  82.1792 277.9325 15.08841669127956,6917.875,95.437,540.497,538.983,0.0
52103.0,STARLINK-3705,PAYLOAD,2024-07-03 12:37:01,15.08826672,0.000114,53.2174,316.2148,90.1966,269.9156,5.265e-05,5.5e-06,0.0,0 STARLINK-3705,1 52103U 22029R   24185.52571129  .00000550  00000-0  52650-4 0  9990,2 52103  53.2174 316.2148 0001140  90.1966 269.9156 15.08826672128067,6917.921,95.438,540.575,538.997,0.0
52103.0,STARLINK-3705,PAYLOAD,2024-07-03 15:47:47,15.08828913,9.82e-05,53.2173,315.6217,80.0232,280.0871,7.9404e-05,9.76e-06,0.0,0 STARLINK-3705,1 52103U 22029R   24185.65818962  .00000976  00000-0  79404-4 0  9991,2 52103  53.2173 315.6217 0000982  80.0232 280.0871 15.08828913128083,6917.914,95.438,540.459,539.1,0.0
52103.0,STARLINK-3705,PAYLOAD,2024-07-04 01:20:06,15.08842407,0.0001197,53.2175,313.8373,90.3632,269.7498,-5.939e-05,-1.233e-05,0.0,0 STARLINK-3705,1 52103U 22029R   24186.05562505 -.00001233  00000-0 -59390-4 0  9996,2 52103  53.2175 313.8373 0001197  90.3632 269.7498 15.08842407128145,6917.873,95.437,540.566,538.91,0.0
52103.0,STARLINK-3705,PAYLOAD,2024-07-04 14:03:11,15.08837527,0.0001195,53.2174,311.4585,97.4014,262.7114,8.2496e-05,1.025e-05,0.0,0 STARLINK-3705,1 52103U 22029R   24186.58554654  .00001025  00000-0  82496-4 0  9990,2 52103  53.2174 311.4585 0001195  97.4014 262.7114 15.08837527128227,6917.888,95.438,540.58,538.926,0.0
52103.0,STARLINK-3705,PAYLOAD,2024-07-04 15:38:34,15.08839544,0.0001117,53.2172,311.1614,100.1863,259.9255,8.9361e-05,1.135e-05,0.0,0 STARLINK-3705,1 52103U 22029R   24186.65178513  .00001135  00000-0  89361-4 0  9994,2 52103  53.2172 311.1614 0001117 100.1863 259.9255 15.08839544128239,6917.882,95.438,540.52,538.974,0.0
52103.0,STARLINK-3705,PAYLOAD,2024-07-05 12:18:35,15.08834516,0.0001372,53.2191,307.2946,90.0884,270.0265,6.9205e-05,8.13e-06,0.0,0 STARLINK-3705,1 52103U 22029R   24187.51290993  .00000813  00000-0  69205-4 0  9994,2 52103  53.2191 307.2946 0001372  90.0884 270.0265 15.08834516128360,6917.897,95.438,540.711,538.813,0.0
52103.0,STARLINK-3705,PAYLOAD,2024-07-05 13:53:58,15.08839177,0.0001346,53.2177,306.9951,76.9769,283.1373,3.8077e-05,3.18e-06,0.0,0 STARLINK-3705,1 52103U 22029R   24187.57914802  .00000318  00000-0  38077-4 0  9995,2 52103  53.2177 306.9951 0001346  76.9769 283.1373 15.08839177128376,6917.883,95.438,540.679,538.817,0.0
52103.0,STARLINK-3705,PAYLOAD,2024-07-06 13:44:45,15.08839737,0.0001197,53.2174,302.5362,84.9325,275.1804,-5.5107e-05,-1.165e-05,0.0,0 STARLINK-3705,1 52103U 22029R   24188.57275077 -.00001165  00000-0 -55107-4 0  9996,2 52103  53.2174 302.5362 0001197  84.9325 275.1804 15.08839737128521,6917.881,95.438,540.574,538.918,0.0
52103.0,STARLINK-3705,PAYLOAD,2024-07-06 15:20:08,15.08841814,0.0001199,53.2173,302.2385,83.5452,276.5676,-3.3977e-05,-8.29e-06,0.0,0 STARLINK-3705,1 52103U 22029R   24188.63898864 -.00000829  00000-0 -33977-4 0  9995,2 52103  53.2173 302.2385 0001199  83.5452 276.5676 15.08841814128532,6917.875,95.437,540.569,538.91,0.0
52103.0,STARLINK-3705,PAYLOAD,2024-07-07 07:13:59,15.08836972,0.0001088,53.2175,299.2659,83.7438,276.3678,3.5293e-05,2.74e-06,0.0,0 STARLINK-3705,1 52103U 22029R   24189.30138861  .00000274  00000-0  35293-4 0  9999,2 52103  53.2175 299.2659 0001088  83.7438 276.3678 15.08836972128636,6917.89,95.438,540.507,539.002,0.0
52103.0,STARLINK-3705,PAYLOAD,2024-07-08 13:26:19,15.08843274,0.0001328,53.2176,293.6158,85.1719,274.9424,8.0559e-05,9.95e-06,0.0,0 STARLINK-3705,1 52103U 22029R   24190.55994522  .00000995  00000-0  80559-4 0  9997,2 52103  53.2176 293.6158 0001328  85.1719 274.9424 15.08843274128821,6917.87,95.437,540.654,538.817,0.0
52103.0,STARLINK-3705,PAYLOAD,2024-07-09 13:17:06,15.08835988,0.0001312,53.2177,289.1546,90.1329,269.9813,0.00017211,2.452e-05,0.0,0 STARLINK-3705,1 52103U 22029R   24191.55354686  .00002452  00000-0  17211-3 0  9993,2 52103  53.2177 289.1546 0001312  90.1329 269.9813 15.08835988128974,6917.893,95.438,540.665,538.85,0.0
52103.0,STARLINK-3705,PAYLOAD,2024-07-09 16:27:52,15.08847599,0.0001331,53.2174,288.5591,87.1236,272.9908,5.7544e-05,6.28e-06,0.0,0 STARLINK-3705,1 52103U 22029R   24191.68602136  .00000628  00000-0  57544-4 0  9990,2 52103  53.2174 288.5591 0001331  87.1236 272.9908 15.08847599128990,6917.857,95.437,540.643,538.801,0.0
52103.0,STARLINK-3705,PAYLOAD,2024-07-10 13:07:53,15.08841325,0.0001115,53.2164,284.6902,77.8924,282.2193,-2.1569e-05,-6.31e-06,0.0,0 STARLINK-3705,1 52103U 22029R   24192.54714834 -.00000631  00000-0 -21569-4 0  9999,2 52103  53.2164 284.6902 0001115  77.8924 282.2193 15.08841325129129,6917.876,95.437,540.513,538.97,0.0
52103.0,STARLINK-3705,PAYLOAD,2024-07-11 12:58:40,15.0884555,0.0001225,53.2174,280.2343,88.9311,271.1822,3.407e-05,2.54e-06,0.0,0 STARLINK-3705,1 52103U 22029R   24193.54074644  .00000254  00000-0  34070-4 0  9998,2 52103  53.2174 280.2343 0001225  88.9311 271.1822 15.08845550129272,6917.863,95.437,540.576,538.881,0.0
52103.0,STARLINK-3705,PAYLOAD,2024-07-12 12:49:28,15.088385,0.0001337,53.2177,275.7739,96.532,263.5824,8.4456e-05,1.056e-05,0.0,0 STARLINK-3705,1 52103U 22029R   24194.53435215  .00001056  00000-0  84456-4 0  9997,2 52103  53.2177 275.7739 0001337  96.5320 263.5824 15.08838500129423,6917.885,95.438,540.675,538.825,0.0
52103.0,STARLINK-3705,PAYLOAD,2024-07-12 22:21:47,15.08838545,0.0001263,53.2171,273.9893,93.6798,266.4339,3.025e-05,1.94e-06,0.0,0 STARLINK-3705,1 52103U 22029R   24194.93179408  .00000194  00000-0  30250-4 0  9995,2 52103  53.2171 273.9893 0001263  93.6798 266.4339 15.08838545129481,6917.885,95.438,540.624,538.876,0.0
52103.0,STARLINK-3705,PAYLOAD,2024-07-13 14:15:38,15.08845081,0.0001236,53.2164,271.0151,93.8544,266.2589,6.475e-05,7.43e-06,0.0,0 STARLINK-3705,1 52103U 22029R   24195.59418995  .00000743  00000-0  64750-4 0  9997,2 52103  53.2164 271.0151 0001236  93.8544 266.2589 15.08845081129589,6917.865,95.437,540.585,538.875,0.0
52103.0,STARLINK-3705,PAYLOAD,2024-07-13 22:12:33,15.08843746,0.000143,53.2172,269.5248,77.1862,282.929,-4.1924e-06,-3.55e-06,0.0,0 STARLINK-3705,1 52103U 22029R   24195.92539286 -.00000355  00000-0 -41924-5 0  9991,2 52103  53.2172 269.5248 0001430  77.1862 282.9290 15.08843746129637,6917.869,95.437,540.723,538.745,0.0
52103.0,STARLINK-3705,PAYLOAD,2024-07-14 12:31:02,15.08841403,0.000133,53.2166,266.8506,80.9636,279.1506,7.0567e-05,8.35e-06,0.0,0 STARLINK-3705,1 52103U 22029R   24196.52155323  .00000835  00000-0  70567-4 0  9999,2 52103  53.2166 266.8506 0001330  80.9636 279.1506 15.08841403129723,6917.876,95.437,540.661,538.821,0.0
52103.0,STARLINK-3705,PAYLOAD,2024-07-14 14:06:25,15.0883617,0.0001336,53.2174,266.5517,73.0855,287.0284,0.00020815,3.026e-05,0.0,0 STARLINK-3705,1 52103U 22029R   24196.58779302  .00003026  00000-0  20815-3 0  9999,2 52103  53.2174 266.5517 0001336  73.0855 287.0284 15.08836170129730,6917.892,95.438,540.681,538.833,0.0
52103.0,STARLINK-3705,PAYLOAD,2024-07-15 10:46:26,15.08839996,0.0001293,53.2148,262.6876,91.1873,268.9268,6.4804e-05,7.44e-06,0.0,0 STARLINK-3705,1 52103U 22029R   24197.44891429  .00000744  00000-0  64804-4 0  9991,2 52103  53.2148 262.6876 0001293  91.1873 268.9268 15.08839996129862,6917.88,95.438,540.64,538.851,0.0
52103.0,STARLINK-3705,PAYLOAD,2024-07-15 21:54:07,15.08845718,0.0001275,53.2151,260.606,94.8896,265.2242,-3.3142e-07,-2.93e-06,0.0,0 STARLINK-3705,1 52103U 22029R   24197.91259097 -.00000293  00000-0 -33142-6 0  9996,2 52103  53.2151 260.6060 0001275  94.8896 265.2242 15.08845718129933,6917.863,95.437,540.61,538.846,0.0
52103.0,STARLINK-3705,PAYLOAD,2024-07-16 10:37:12,15.08870335,0.0001542,53.216,258.2269,124.4504,235.6634,-0.00032194,-5.412e-05,0.0,0 STARLINK-3705,1 52103U 22029R   24198.44250721 -.00005412  00000-0 -32194-3 0  9991,2 52103  53.2160 258.2269 0001542 124.4504 235.6634 15.08870335130010,6917.788,95.436,540.719,538.586,0.0
52103.0,STARLINK-3705,PAYLOAD,2024-07-17 04:06:28,15.08824458,0.0001488,53.2163,254.9553,99.9106,260.2054,0.00020432,2.964e-05,0.0,0 STARLINK-3705,1 52103U 22029R   24199.17116013  .00002964  00000-0  20432-3 0  9996,2 52103  53.2163 254.9553 0001488  99.9106 260.2054 15.08824458130122,6917.928,95.439,540.822,538.764,0.0
52103.0,STARLINK-3705,PAYLOAD,2024-07-17 10:28:00,15.0883914,0.000148,53.2163,253.7656,100.2827,259.8332,3.397e-05,2.53e-06,0.0,0 STARLINK-3705,1 52103U 22029R   24199.43611557  .00000253  00000-0  33970-4 0  9999,2 52103  53.2163 253.7656 0001480 100.2827 259.8332 15.08839140130162,6917.883,95.438,540.772,538.724,0.0
